#Pass ID: 20250120_050434_FENGYUN 3E
#Satellite: FENGYUN 3E
#Configuration: FENGYUN 3E
#Start time: 2025-01-20 05:04:39.993633

#LorettStation: 1.0.0 05.05.2024
#Station: Regia
#Location: 37.494653 lon 55.929028 lat
#TLE: 1 49008U 21062A   25019.55670186  .00000069  00000+0  53373-4 0  9996
#TLE: 2 49008  98.7400  24.0154 0002508 113.7594 246.3846 14.19833852183696

#Time	Az	El	Level	SNR
#Closed at: 2025-01-20 05:04:34.994366